BEIDOU 3 (C01)          
1 36287U 10001A   22198.59728225 -.00000293  00000+0  00000+0 0  9993
2 36287   1.9325  49.1959 0004377  32.9983 208.6120  1.00274525 45813
BEIDOU 5 (C06)          
1 36828U 10036A   22198.20268725 -.00000102  00000+0  00000+0 0  9993
2 36828  54.1994 175.9538 0030833 190.8331 107.5503  1.00290642 43878
BEIDOU 6 (C04)          
1 37210U 10057A   22198.60667694 -.00000125  00000+0  00000+0 0  9999
2 37210   0.9025  50.6933 0004550 125.1869 137.8669  1.00270094 42934
BEIDOU 7 (C07)          
1 37256U 10068A   22198.19404142 -.00000202  00000+0  00000+0 0  9998
2 37256  50.1590 289.2936 0022930 198.5676 342.1989  1.00297787 42443
BEIDOU 8 (C08)          
1 37384U 11013A   22198.54424538 -.00000185  00000+0  00000+0 0  9991
2 37384  60.3354  53.9605 0022476 177.8149   4.2940  1.00298436 41326
BEIDOU 9 (C09)          
1 37763U 11038A   22198.64905786 -.00000056  00000+0  00000+0 0  9996
2 37763  54.4779 178.4472 0098900 228.4163 217.9819  1.00273867 40307
BEIDOU 10 (C10)         
1 37948U 11073A   22198.19523587 -.00000158  00000+0  00000+0 0  9998
2 37948  50.2758 288.9355 0084561 218.1082 313.1117  1.00287791 39055
BEIDOU 11 (C05)         
1 38091U 12008A   22198.58097579  .00000045  00000+0  00000+0 0  9991
2 38091   1.6303  68.3553 0014368 341.3306 153.4479  1.00272989 38134
BEIDOU 12 (C11)         
1 38250U 12018A   22198.20798734 -.00000099  00000+0  00000+0 0  9999
2 38250  56.6860 352.5767 0020367 251.0272 108.7350  1.86234431 69644
BEIDOU 13 (C12)         
1 38251U 12018B   22198.14086542 -.00000099  00000+0  00000+0 0  9990
2 38251  56.6028 351.9013 0011128 251.9408 107.0189  1.86234216 69635
BEIDOU 15 (C14)         
1 38775U 12050B   22197.63196550 -.00000017  00000+0  00000+0 0  9991
2 38775  55.4165 110.7036 0014764 325.8493 248.0742  1.86231495 67001
BEIDOU 16 (C02)         
1 38953U 12059A   22198.44256008 -.00000186  00000+0  00000+0 0  9990
2 38953   2.0623  84.2928 0010386 305.8317 148.3427  1.00267451 35565
BEIDOU 17 (C31)         
1 40549U 15019A   22198.19763517 -.00000187  00000+0  00000+0 0  9994
2 40549  51.8369 312.4115 0037194 194.0246 313.6312  1.00291171 26732
BEIDOU 18 (C57)         
1 40748U 15037A   22198.27437041 -.00000101  00000+0  00000+0 0  9990
2 40748  55.8560 350.7451 0004387  51.9547 305.8971  1.86233441 47468
BEIDOU 19 (C58)         
1 40749U 15037B   22198.60887991 -.00000101  00000+0  00000+0 0  9991
2 40749  55.8575 350.7238 0003071 359.4139 357.1011  1.86232220 47469
BEIDOU 20 (C18)         
1 40938U 15053A   22196.67977922 -.00000122  00000+0  00000+0 0  9991
2 40938  51.4544 275.5503 0045728 197.8672 160.2853  1.00286254 24988
BEIDOU IGSO-6 (C13)     
1 41434U 16021A   22198.27469991 -.00000167  00000+0  00000+0 0  9998
2 41434  58.1428  52.5245 0043793 216.2502 221.4119  1.00277373 23132
BEIDOU-2 G7 (C03)       
1 41586U 16037A   22198.58702057 -.00000366  00000+0  00000+0 0  9991
2 41586   1.4399  66.2748 0008793   0.4737 190.4700  1.00275140 22446
BEIDOU-3 M1 (C19)       
1 43001U 17069A   22197.35368116 -.00000016  00000+0  00000+0 0  9991
2 43001  55.5695 110.7171 0011054 296.5140 247.1269  1.86231864 31937
BEIDOU-3 M2 (C20)       
1 43002U 17069B   22198.34320706 -.00000019  00000+0  00000+0 0  9998
2 43002  55.5687 110.7200 0009006 318.4986 211.5461  1.86231078 31945
BEIDOU-3 M3 (C27)       
1 43107U 18003A   22198.37491428 -.00000102  00000+0  00000+0 0  9999
2 43107  55.3077 351.6461 0005442  64.4975 292.9803  1.86232545 30709
BEIDOU-3 M4 (C28)       
1 43108U 18003B   22198.31299259 -.00000102  00000+0  00000+0 0  9992
2 43108  55.3000 351.6371 0001975 233.8336 125.8538  1.86230995 30702
BEIDOU-3 M5 (C21)       
1 43207U 18018A   22197.14753143 -.00000017  00000+0  00000+0 0  9990
2 43207  55.5283 110.8377 0006701 339.1494  20.8342  1.86231714 30072
BEIDOU-3 M6 (C22)       
1 43208U 18018B   22197.21420248 -.00000016  00000+0  00000+0 0  9995
2 43208  55.5270 110.8403 0008795 308.8312  51.1063  1.86231324 30070
BEIDOU-3 M7 (C29)       
1 43245U 18029A   22198.24068749 -.00000102  00000+0  00000+0 0  9992
2 43245  55.2190 349.4177 0001105  95.4979  82.4307  1.86232725 29244
BEIDOU-3 M8 (C30)       
1 43246U 18029B   22198.17391436 -.00000101  00000+0  10000-3 0  9991
2 43246  55.2170 349.4497 0003833  15.8647 163.8504  1.86232930 29236
BEIDOU IGSO-7 (C16)     
1 43539U 18057A   22197.87336970 -.00000109  00000+0  00000+0 0  9998
2 43539  55.0919 175.4707 0052661 229.4195 314.2129  1.00301247 14801
BEIDOU-3 M9 (C23)       
1 43581U 18062A   22198.30192551  .00000031  00000+0  00000+0 0  9998
2 43581  54.2683 231.0633 0005393 266.4869 210.1584  1.86231986 26980
BEIDOU-3 M10 (C24)      
1 43582U 18062B   22198.58778513  .00000031  00000+0  00000+0 0  9997
2 43582  54.2675 231.0423 0004170 342.3885  57.7145  1.86232274 26993
BEIDOU-3 M11 (C25)      
1 43602U 18067A   22198.40968473  .00000033  00000+0  00000+0 0  9994
2 43602  54.3501 229.6662 0006466   1.4336 320.6324  1.86231805 26470
BEIDOU-3 M12 (C26)      
1 43603U 18067B   22197.12401697  .00000040  00000+0  00000+0 0  9991
2 43603  54.3468 229.6763 0003870 343.8066 106.6414  1.86231706 26476
BEIDOU-3 M13 (C32)      
1 43622U 18072A   22196.61771252 -.00000018  00000+0  00000+0 0  9994
2 43622  55.4948 110.4088 0007655 294.3782 205.8175  1.86231920 25977
BEIDOU-3 M14 (C33)      
1 43623U 18072B   22198.06896523 -.00000018  00000+0  00000+0 0  9995
2 43623  55.4973 110.3520 0005719 319.3157 164.1139  1.86231941 26004
BEIDOU-3 M15 (C34)      
1 43647U 18078A   22197.77479854 -.00000101  00000+0  10000-3 0  9996
2 43647  55.1143 349.5901 0006117  17.0331 164.7401  1.86232568 25502
BEIDOU-3 M16 (C35)      
1 43648U 18078B   22198.44133927 -.00000102  00000+0  00000+0 0  9996
2 43648  55.1098 349.5726 0004489  31.8396 144.5592  1.86232358 25539
BEIDOU-3 G1 (C59)       
1 43683U 18085A   22198.52542913 -.00000290  00000+0  00000+0 0  9999
2 43683   0.9201 160.9898 0004369   3.5811  99.9652  1.00271524 13713
BEIDOU-3 M17 (C36)      
1 43706U 18093A   22197.79245102  .00000034  00000+0  00000+0 0  9997
2 43706  54.3503 230.9669 0011096 271.5731  88.3617  1.86231899 24882
BEIDOU-3 M18 (C37)      
1 43707U 18093B   22197.67479144  .00000034  00000+0  00000+0 0  9990
2 43707  54.3512 230.9624 0008769 293.4014  78.8926  1.86232272 24876
BEIDOU-3 IGSO-1 (C38)   
1 44204U 19023A   22197.51580635 -.00000222  00000+0  00000+0 0  9998
2 44204  56.5988  52.6580 0022383 188.1196 355.3014  1.00301288 12002
BEIDOU-2 G8             
1 44231U 19027A   22198.59806705 -.00000259  00000+0  00000+0 0  9990
2 44231   0.9326  77.5699 0005001 103.0739 114.5357  1.00274128 11720
BEIDOU-3 IGSO-2 (C39)   
1 44337U 19035A   22197.84841076 -.00000120  00000+0  00000+0 0  9990
2 44337  55.1263 171.4638 0025949 194.5004 351.1128  1.00295903 11346
BEIDOU-3 M23 (C45)      
1 44542U 19061A   22197.72845999  .00000034  00000+0  00000+0 0  9995
2 44542  54.5769 231.1171 0008281 324.1334  35.8738  1.86231294 19136
BEIDOU-3 M24 (C46)      
1 44543U 19061B   22197.33294833  .00000037  00000+0  00000+0 0  9991
2 44543  54.5748 231.1000 0005686 308.4051  57.7821  1.86231797 19125
BEIDOU-3 IGSO-3         
1 44709U 19073A   22197.62762985 -.00000196  00000+0  10000-3 0  9990
2 44709  57.2195 296.0847 0026937 177.5830 163.3217  1.00299302 10087
BEIDOU-3 M21            
1 44793U 19078A   22198.37448491 -.00000102  00000+0  10000-3 0  9991
2 44793  54.9630 349.5874 0006226  23.1863 154.4994  1.86232378 18000
BEIDOU-3 M22            
1 44794U 19078B   22198.50855630 -.00000103  00000+0  00000+0 0  9990
2 44794  54.9343 349.5731 0004201  23.1534 156.1396  1.86232836 18004
BEIDOU-3 M19            
1 44864U 19090A   22198.22480083 -.00000019  00000+0  00000+0 0  9993
2 44864  55.4298 110.5638 0017509 273.9174 269.5733  1.86232034 17585
BEIDOU-3 M20            
1 44865U 19090B   22197.52095863 -.00000017  00000+0  00000+0 0  9992
2 44865  55.4315 110.6204 0015996 287.9711 233.4895  1.86232012 17547
BEIDOU-3 G2             
1 45344U 20017A   22198.44177528 -.00000151  00000+0  00000+0 0  9996
2 45344   2.0472 353.5642 0005099 125.8616  54.8572  1.00269489  8915
BEIDOU-3 G3             
1 45807U 20040A   22198.57271804 -.00000365  00000+0  00000+0 0  9999
2 45807   1.3732 304.0371 0006457 329.5440 338.5252  1.00272045  7724
